[{"OBJECT_NAME":"TIANMU-1 11","OBJECT_ID":"2023-205A","EPOCH":"2026-03-10T00:04:04.804896","MEAN_MOTION":15.25886825,"ECCENTRICITY":0.00089558,"INCLINATION":97.3549,"RA_OF_ASC_NODE":92.1484,"ARG_OF_PERICENTER":7.2987,"MEAN_ANOMALY":352.838,"EPHEMERIS_TYPE":0,"CLASSIFICATION_TYPE":"U","NORAD_CAT_ID":58645,"ELEMENT_SET_NO":999,"REV_AT_EPOCH":12239,"BSTAR":0.00031315232,"MEAN_MOTION_DOT":7.963e-5,"MEAN_MOTION_DDOT":0},{"OBJECT_NAME":"STARLINK-36460","OBJECT_ID":"2026-005AE","EPOCH":"2026-03-09T12:09:58.375296","MEAN_MOTION":15.27585471,"ECCENTRICITY":7.19e-5,"INCLINATION":42.9953,"RA_OF_ASC_NODE":239.4247,"ARG_OF_PERICENTER":264.3929,"MEAN_ANOMALY":95.6841,"EPHEMERIS_TYPE":0,"CLASSIFICATION_TYPE":"U","NORAD_CAT_ID":67432,"ELEMENT_SET_NO":999,"REV_AT_EPOCH":865,"BSTAR":0.001372904,"MEAN_MOTION_DOT":0.00037717,"MEAN_MOTION_DDOT":0}]
